{{Infobox planet
|width           = 25em
|background      = #FFFFC0 | name=小行星369
 | discoverer=[[阿方斯·路易·尼古拉斯·包瑞利|阿方斯·路易·尼古拉斯·包瑞利]]
 | discovered=1893年7月4日
 | alt_names=	1893 AE
 | named_after = [[空气|空气]]
 | mp_category=[[小行星带|主带小行星]]
 | epoch=2011年8月27日 ([[儒略日|JD]] 2453400.5)
 | eccentricity=.0986575391377334
 | semimajor=2.648506840799208AU
 | perihelion=2.387211673496506AU
 | inclination=12.70766593752904°
 | asc_node=94.29323262271606°
 | arg_peri=268.6991550707594°
 | mean_anomaly=62.56633740592795[[角度|°]]
 | period=1574.345602404518[[日|日]]<br/>4.31[[儒略年|儒略年]]
 | aphelion=2.909802008101911[[天文单位|AU]]		
 | avg_speed=18.3km/s
 | abs_magnitude=8.52
 | dimensions=60.00千米	
 | rotation=4.787小时
 | albedo=0.1919
 | mass=未知
 | density=未知
 | surface_grav=未知
 | escape_velocity=未知
 | spectral_type=[[M-型小行星|M型]]
 | single_temperature=未知}}

'''小行星369'''（[[英语|英语]]：'''369 Aëria'''）是一颗[[M-型小行星|M型]][[小行星带|主带小行星]]，于1893年7月4日由[[法国|法国]][[天文学家|天文学家]][[阿方斯·路易·尼古拉斯·包瑞利|阿方斯·路易·尼古拉斯·包瑞利]]在[[马赛|马赛]]发现<ref>[http://ssd.jpl.nasa.gov/sbdb.cgi?sstr=369%20Aeria;orb=1;cov=0;log=0;cad=0#orb JPL Small-Body Database Browser]</ref>。

==参考资料==
{{reflist}}

{{Minor Planet Number|[[小行星368|368 Haidea]]|[[小行星370|370 Modestia]]}}

{{Beltasteroid-stub}}

[[Category:1893年发现的小行星|Category:1893年发现的小行星]]
[[Category:小行星带天体|Category:小行星带天体]]